{
    "links": {
        "self": "http://www.neowsapp.com/rest/v1/neo/3256426?api_key=iIulBulltgU6a56xZRHN4H3l9WmuAYTsLGpBGhQ2"
    },
    "id": "3256426",
    "neo_reference_id": "3256426",
    "name": "(2004 TV11)",
    "designation": "2004 TV11",
    "nasa_jpl_url": "http://ssd.jpl.nasa.gov/sbdb.cgi?sstr=3256426",
    "absolute_magnitude_h": 24.4,
    "estimated_diameter": {
        "kilometers": {
            "estimated_diameter_min": 0.0350392641,
            "estimated_diameter_max": 0.0783501764
        },
        "meters": {
            "estimated_diameter_min": 35.0392641108,
            "estimated_diameter_max": 78.3501764334
        },
        "miles": {
            "estimated_diameter_min": 0.0217723826,
            "estimated_diameter_max": 0.0486845275
        },
        "feet": {
            "estimated_diameter_min": 114.9582192654,
            "estimated_diameter_max": 257.0543928497
        }
    },
    "is_potentially_hazardous_asteroid": false,
    "close_approach_data": [
        {
            "close_approach_date": "2004-09-18",
            "close_approach_date_full": "2004-Sep-18 08:20",
            "epoch_date_close_approach": 1095495600000,
            "relative_velocity": {
                "kilometers_per_second": "6.842768981",
                "kilometers_per_hour": "24633.9683314827",
                "miles_per_hour": "15306.589933526"
            },
            "miss_distance": {
                "astronomical": "0.104429173",
                "lunar": "40.622948297",
                "kilometers": "15622381.84666151",
                "miles": "9707297.946128438"
            },
            "orbiting_body": "Earth"
        }
    ],
    "orbital_data": {
        "orbit_id": "8",
        "orbit_determination_date": "2017-04-06 09:12:02",
        "first_observation_date": "2004-10-09",
        "last_observation_date": "2004-10-21",
        "data_arc_in_days": 12,
        "observations_used": 29,
        "orbit_uncertainty": "8",
        "minimum_orbit_intersection": ".103372",
        "jupiter_tisserand_invariant": "3.411",
        "epoch_osculation": "2453289.5",
        "eccentricity": ".5198759530433814",
        "semi_major_axis": "2.270405340498768",
        "inclination": "7.484180869537746",
        "ascending_node_longitude": "19.46396639649952",
        "orbital_period": "1249.549676408273",
        "perihelion_distance": "1.090076200312188",
        "perihelion_argument": "329.7398059111329",
        "aphelion_distance": "3.450734480685347",
        "perihelion_time": "2453260.119253048952",
        "mean_anomaly": "8.464704606846992",
        "mean_motion": ".2881037919475039",
        "equinox": "J2000",
        "orbit_class": {
            "orbit_class_type": "AMO",
            "orbit_class_description": "Near-Earth asteroid orbits similar to that of 1221 Amor",
            "orbit_class_range": "1.017 AU < q (perihelion) < 1.3 AU"
        }
    },
    "is_sentry_object": false
}